start=new Date('2023-03-01T00:00:00.000Z').valueOf();
sats=[{"RA_OF_ASC_NODE":"313.2930","INCLINATION":"53.2149","MEAN_ELEMENT_THEORY":"SGP4","REF_FRAME":"TEME","GP_ID":"227275516","OBJECT_TYPE":"PAYLOAD","PERIOD":"95.441","SITE":"AFETR","OBJECT_ID":"2022-062H","COUNTRY_CODE":"US","NORAD_CAT_ID":"52837","EPOCH":"2023-02-28T23:52:06.572928","ELEMENT_SET_NO":"999","TLE_LINE2":"2 52837  53.2149 313.2930 0001356 131.7962 228.3147 15.08782845 39014","SEMIMAJOR_AXIS":"6918.055","MEAN_MOTION":"15.08782845","LAUNCH_DATE":"2022-06-17","MEAN_MOTION_DOT":"0.00012412","TIME_SYSTEM":"UTC","DECAY_DATE":null,"REV_AT_EPOCH":"3901","OBJECT_NAME":"STARLINK-4036","TLE_LINE1":"1 52837U 22062H   23059.99452052  .00012412  00000-0  79780-3 0  9996","PERIAPSIS":"538.982","CLASSIFICATION_TYPE":"U","APOAPSIS":"540.858","ARG_OF_PERICENTER":"131.7962","MEAN_MOTION_DDOT":"0.0000000000000","CENTER_NAME":"EARTH","RCS_SIZE":"LARGE","BSTAR":"0.00079780000000","EPHEMERIS_TYPE":"0","FILE":"3847856","MEAN_ANOMALY":"228.3147","ECCENTRICITY":"0.00013560"},{"EPHEMERIS_TYPE":"0","BSTAR":"0.00030844000000","MEAN_ANOMALY":"282.7885","FILE":"3847856","ECCENTRICITY":"0.00010950","CLASSIFICATION_TYPE":"U","PERIAPSIS":"539.061","MEAN_MOTION_DDOT":"0.0000000000000","ARG_OF_PERICENTER":"77.3230","APOAPSIS":"540.576","CENTER_NAME":"EARTH","RCS_SIZE":"LARGE","TLE_LINE2":"2 52838  53.2151 313.2612 0001095  77.3230 282.7885 15.08815955 39504","ELEMENT_SET_NO":"999","MEAN_MOTION":"15.08815955","SEMIMAJOR_AXIS":"6917.954","MEAN_MOTION_DOT":"0.00004621","TIME_SYSTEM":"UTC","LAUNCH_DATE":"2022-06-17","TLE_LINE1":"1 52838U 22062J   23059.99818839  .00004621  00000-0  30844-3 0  9997","REV_AT_EPOCH":"3950","DECAY_DATE":null,"OBJECT_NAME":"STARLINK-4092","MEAN_ELEMENT_THEORY":"SGP4","REF_FRAME":"TEME","INCLINATION":"53.2151","RA_OF_ASC_NODE":"313.2612","SITE":"AFETR","PERIOD":"95.439","OBJECT_TYPE":"PAYLOAD","GP_ID":"227275513","NORAD_CAT_ID":"52838","COUNTRY_CODE":"US","OBJECT_ID":"2022-062J","EPOCH":"2023-02-28T23:57:23.476896"},{"MEAN_ANOMALY":"279.0343","FILE":"3847860","ECCENTRICITY":"0.00012560","EPHEMERIS_TYPE":"0","BSTAR":"0.00067854000000","CENTER_NAME":"EARTH","RCS_SIZE":"LARGE","CLASSIFICATION_TYPE":"U","PERIAPSIS":"538.990","ARG_OF_PERICENTER":"81.0791","MEAN_MOTION_DDOT":"0.0000000000000","APOAPSIS":"540.728","LAUNCH_DATE":"2022-06-17","TIME_SYSTEM":"UTC","MEAN_MOTION_DOT":"0.00010517","TLE_LINE1":"1 52839U 22062K   23059.98716843  .00010517  00000-0  67854-3 0  9991","REV_AT_EPOCH":"3950","DECAY_DATE":null,"OBJECT_NAME":"STARLINK-4048","TLE_LINE2":"2 52839  53.2159 313.3277 0001256  81.0791 279.0343 15.08802738 39507","ELEMENT_SET_NO":"999","MEAN_MOTION":"15.08802738","SEMIMAJOR_AXIS":"6917.994","NORAD_CAT_ID":"52839","OBJECT_ID":"2022-062K","COUNTRY_CODE":"US","EPOCH":"2023-02-28T23:41:31.352352","INCLINATION":"53.2159","REF_FRAME":"TEME","MEAN_ELEMENT_THEORY":"SGP4","RA_OF_ASC_NODE":"313.3277","PERIOD":"95.440","SITE":"AFETR","OBJECT_TYPE":"PAYLOAD","GP_ID":"227275576"},{"EPOCH":"2023-02-28T23:46:48.506016","COUNTRY_CODE":"US","OBJECT_ID":"2022-062L","NORAD_CAT_ID":"52840","OBJECT_TYPE":"PAYLOAD","GP_ID":"227276016","SITE":"AFETR","PERIOD":"95.442","RA_OF_ASC_NODE":"313.3110","MEAN_ELEMENT_THEORY":"SGP4","REF_FRAME":"TEME","INCLINATION":"53.2163","OBJECT_NAME":"STARLINK-4049","DECAY_DATE":null,"REV_AT_EPOCH":"3950","TLE_LINE1":"1 52840U 22062L   23059.99083919  .00005989  00000-0  39475-3 0  9990","MEAN_MOTION_DOT":"0.00005989","TIME_SYSTEM":"UTC","LAUNCH_DATE":"2022-06-17","SEMIMAJOR_AXIS":"6918.080","MEAN_MOTION":"15.08774657","ELEMENT_SET_NO":"999","TLE_LINE2":"2 52840  53.2163 313.3110 0001041  63.2174 296.8924 15.08774657 39509","CENTER_NAME":"EARTH","RCS_SIZE":"LARGE","APOAPSIS":"540.665","MEAN_MOTION_DDOT":"0.0000000000000","ARG_OF_PERICENTER":"63.2174","PERIAPSIS":"539.225","CLASSIFICATION_TYPE":"U","ECCENTRICITY":"0.00010410","FILE":"3847856","MEAN_ANOMALY":"296.8924","BSTAR":"0.00039475000000","EPHEMERIS_TYPE":"0"},{"SEMIMAJOR_AXIS":"6918.035","MEAN_MOTION":"15.08789321","ELEMENT_SET_NO":"999","TLE_LINE2":"2 52841  53.2149 313.6752 0001465 149.6848 210.4229 15.08789321 39498","OBJECT_NAME":"STARLINK-4065","DECAY_DATE":null,"REV_AT_EPOCH":"3949","TLE_LINE1":"1 52841U 22062M   23059.90987303  .00010194  00000-0  65858-3 0  9990","TIME_SYSTEM":"UTC","MEAN_MOTION_DOT":"0.00010194","LAUNCH_DATE":"2022-06-17","GP_ID":"227276020","OBJECT_TYPE":"PAYLOAD","SITE":"AFETR","PERIOD":"95.441","RA_OF_ASC_NODE":"313.6752","MEAN_ELEMENT_THEORY":"SGP4","REF_FRAME":"TEME","INCLINATION":"53.2149","EPOCH":"2023-02-28T21:50:13.029792","COUNTRY_CODE":"US","OBJECT_ID":"2022-062M","NORAD_CAT_ID":"52841","BSTAR":"0.00065858000000","EPHEMERIS_TYPE":"0","ECCENTRICITY":"0.00014650","FILE":"3847856","MEAN_ANOMALY":"210.4229","APOAPSIS":"540.914","MEAN_MOTION_DDOT":"0.0000000000000","ARG_OF_PERICENTER":"149.6848","PERIAPSIS":"538.887","CLASSIFICATION_TYPE":"U","CENTER_NAME":"EARTH","RCS_SIZE":"LARGE"},{"ECCENTRICITY":"0.00009610","MEAN_ANOMALY":"276.9638","FILE":"3847856","EPHEMERIS_TYPE":"0","BSTAR":"0.00013126000000","RCS_SIZE":"LARGE","CENTER_NAME":"EARTH","MEAN_MOTION_DDOT":"0.0000000000000","ARG_OF_PERICENTER":"83.1464","APOAPSIS":"540.530","CLASSIFICATION_TYPE":"U","PERIAPSIS":"539.200","TLE_LINE1":"1 52842U 22062N   23059.99915510  .00001800  00000-0  13126-3 0  9996","DECAY_DATE":null,"OBJECT_NAME":"STARLINK-4046","REV_AT_EPOCH":"3950","TIME_SYSTEM":"UTC","MEAN_MOTION_DOT":"0.00001800","LAUNCH_DATE":"2022-06-17","MEAN_MOTION":"15.08800892","SEMIMAJOR_AXIS":"6918.000","TLE_LINE2":"2 52842  53.2151 313.2782 0000961  83.1464 276.9638 15.08800892 39507","ELEMENT_SET_NO":"999","EPOCH":"2023-02-28T23:58:47.000640","NORAD_CAT_ID":"52842","COUNTRY_CODE":"US","OBJECT_ID":"2022-062N","SITE":"AFETR","PERIOD":"95.440","OBJECT_TYPE":"PAYLOAD","GP_ID":"227275524","MEAN_ELEMENT_THEORY":"SGP4","REF_FRAME":"TEME","INCLINATION":"53.2151","RA_OF_ASC_NODE":"313.2782"},{"MEAN_MOTION_DOT":"0.00012928","TIME_SYSTEM":"UTC","LAUNCH_DATE":"2022-06-17","REV_AT_EPOCH":"3950","DECAY_DATE":null,"OBJECT_NAME":"STARLINK-4188","TLE_LINE1":"1 52843U 22062P   23059.96875609  .00012928  00000-0  82990-3 0  9996","ELEMENT_SET_NO":"999","TLE_LINE2":"2 52843  53.2164 313.4111 0001206 130.2529 229.8569 15.08792842 39504","SEMIMAJOR_AXIS":"6918.025","MEAN_MOTION":"15.08792842","COUNTRY_CODE":"US","OBJECT_ID":"2022-062P","NORAD_CAT_ID":"52843","EPOCH":"2023-02-28T23:15:00.526176","RA_OF_ASC_NODE":"313.4111","REF_FRAME":"TEME","MEAN_ELEMENT_THEORY":"SGP4","INCLINATION":"53.2164","GP_ID":"227276077","OBJECT_TYPE":"PAYLOAD","SITE":"AFETR","PERIOD":"95.441","FILE":"3847860","MEAN_ANOMALY":"229.8569","ECCENTRICITY":"0.00012060","BSTAR":"0.00082990000000","EPHEMERIS_TYPE":"0","RCS_SIZE":"LARGE","CENTER_NAME":"EARTH","PERIAPSIS":"539.055","CLASSIFICATION_TYPE":"U","APOAPSIS":"540.724","MEAN_MOTION_DDOT":"0.0000000000000","ARG_OF_PERICENTER":"130.2529"},{"EPHEMERIS_TYPE":"0","BSTAR":"-0.00048710000000","ECCENTRICITY":"0.00010860","MEAN_ANOMALY":"264.2975","FILE":"3847857","ARG_OF_PERICENTER":"95.8141","MEAN_MOTION_DDOT":"0.0000000000000","APOAPSIS":"540.656","CLASSIFICATION_TYPE":"U","PERIAPSIS":"539.153","RCS_SIZE":"LARGE","CENTER_NAME":"EARTH","MEAN_MOTION":"15.08787891","SEMIMAJOR_AXIS":"6918.040","TLE_LINE2":"2 52844  53.2157 313.3452 0001086  95.8141 264.2975 15.08787891 39508","ELEMENT_SET_NO":"999","TLE_LINE1":"1 52844U 22062Q   23059.98347775 -.00008020  00000-0 -48710-3 0  9999","REV_AT_EPOCH":"3950","DECAY_DATE":null,"OBJECT_NAME":"STARLINK-4208","LAUNCH_DATE":"2022-06-17","MEAN_MOTION_DOT":"-0.00008020","TIME_SYSTEM":"UTC","PERIOD":"95.441","SITE":"AFETR","OBJECT_TYPE":"PAYLOAD","GP_ID":"227275530","INCLINATION":"53.2157","REF_FRAME":"TEME","MEAN_ELEMENT_THEORY":"SGP4","RA_OF_ASC_NODE":"313.3452","EPOCH":"2023-02-28T23:36:12.477600","NORAD_CAT_ID":"52844","OBJECT_ID":"2022-062Q","COUNTRY_CODE":"US"},{"CLASSIFICATION_TYPE":"U","PERIAPSIS":"539.036","ARG_OF_PERICENTER":"86.8389","MEAN_MOTION_DDOT":"0.0000000000000","APOAPSIS":"540.629","RCS_SIZE":"LARGE","CENTER_NAME":"EARTH","EPHEMERIS_TYPE":"0","BSTAR":"-0.00005140400000","MEAN_ANOMALY":"273.2735","FILE":"3847857","ECCENTRICITY":"0.00011510","INCLINATION":"53.2153","MEAN_ELEMENT_THEORY":"SGP4","REF_FRAME":"TEME","RA_OF_ASC_NODE":"313.4246","PERIOD":"95.439","SITE":"AFETR","GP_ID":"227275529","OBJECT_TYPE":"PAYLOAD","NORAD_CAT_ID":"52845","OBJECT_ID":"2022-062R","COUNTRY_CODE":"US","EPOCH":"2023-02-28T23:11:04.742304","TLE_LINE2":"2 52845  53.2153 313.4246 0001151  86.8389 273.2735 15.08811547 39504","ELEMENT_SET_NO":"999","MEAN_MOTION":"15.08811547","SEMIMAJOR_AXIS":"6917.967","LAUNCH_DATE":"2022-06-17","MEAN_MOTION_DOT":"-0.00001105","TIME_SYSTEM":"UTC","TLE_LINE1":"1 52845U 22062R   23059.96602711 -.00001105  00000-0 -51404-4 0  9994","DECAY_DATE":null,"REV_AT_EPOCH":"3950","OBJECT_NAME":"STARLINK-4168"},{"CLASSIFICATION_TYPE":"U","PERIAPSIS":"538.852","ARG_OF_PERICENTER":"89.8236","MEAN_MOTION_DDOT":"0.0000000000000","APOAPSIS":"540.918","RCS_SIZE":"LARGE","CENTER_NAME":"EARTH","EPHEMERIS_TYPE":"0","BSTAR":"-0.00028051000000","MEAN_ANOMALY":"270.2927","FILE":"3847857","ECCENTRICITY":"0.00014930","INCLINATION":"53.2160","REF_FRAME":"TEME","MEAN_ELEMENT_THEORY":"SGP4","RA_OF_ASC_NODE":"313.3943","PERIOD":"95.440","SITE":"AFETR","GP_ID":"227275532","OBJECT_TYPE":"PAYLOAD","NORAD_CAT_ID":"52846","OBJECT_ID":"2022-062S","COUNTRY_CODE":"US","EPOCH":"2023-02-28T23:20:18.534336","TLE_LINE2":"2 52846  53.2160 313.3943 0001493  89.8236 270.2927 15.08794253 39503","ELEMENT_SET_NO":"999","MEAN_MOTION":"15.08794253","SEMIMAJOR_AXIS":"6918.020","LAUNCH_DATE":"2022-06-17","MEAN_MOTION_DOT":"-0.00004744","TIME_SYSTEM":"UTC","TLE_LINE1":"1 52846U 22062S   23059.97243674 -.00004744  00000-0 -28051-3 0  9998","DECAY_DATE":null,"REV_AT_EPOCH":"3950","OBJECT_NAME":"STARLINK-4212"}];
